STARLINK-31470          
1 59569U 24076F   24128.91667824 -.00922209  00000+0 -66249-2 0  9997
2 59569  43.0005 237.5532 0001575 283.9982 347.0807 15.75262372  3286
STARLINK-31587          
1 59570U 24076G   24128.91667824 -.00927308  00000+0 -66764-2 0  9996
2 59570  43.0004 237.5479 0001324 276.5834 356.6005 15.75228590  3441
STARLINK-31606          
1 59571U 24076H   24128.91667824 -.00935728  00000+0 -67600-2 0  9992
2 59571  43.0004 237.5425 0001569 281.0872 354.2575 15.75172595  3277
STARLINK-31666          
1 59572U 24076J   24128.91667824 -.00937856  00000+0 -67731-2 0  9992
2 59572  43.0003 237.5373 0001705 280.0389 357.2776 15.75184768  3443
STARLINK-31683          
1 59573U 24076K   24128.91667824 -.00945176  00000+0 -68455-2 0  9991
2 59573  43.0007 237.5338 0001702 283.8832 355.5571 15.75140569  3445
STARLINK-31751          
1 59574U 24076L   24128.91667824 -.00956365  00000+0 -69568-2 0  9990
2 59574  43.0002 237.5213 0001514 276.6542   6.9627 15.75075123  3444
STARLINK-31510          
1 59575U 24076M   24128.91667824 -.00953254  00000+0 -69297-2 0  9994
2 59575  43.0006 237.5270 0001545 280.8079   0.7920 15.75080679  3448
STARLINK-31663          
1 59576U 24076N   24128.91667824 -.00984164  00000+0 -70711-2 0  9992
2 59576  43.0002 237.5106 0001761 277.1444  10.6163 15.75020173  3440
STARLINK-31692          
1 59577U 24076P   24128.91667824 -.00978222  00000+0 -70155-2 0  9993
2 59577  43.0001 237.5158 0001719 275.8019   9.8883 15.75048400  3445
STARLINK-31685          
1 59578U 24076Q   24128.91667824 -.00989307  00000+0 -71157-2 0  9993
2 59578  43.0002 237.5052 0001671 269.3601  20.4323 15.75008608  3446
STARLINK-31686          
1 59579U 24076R   24129.25002315 -.00249091  00000+0 -17463-2 0  9999
2 59579  42.9997 235.4734 0001714 252.9444 132.9342 15.73968162  3508
STARLINK-31668          
1 59580U 24076S   24129.25002315 -.00321503  00000+0 -22690-2 0  9998
2 59580  42.9998 235.4787 0001389 247.2194 136.6268 15.74022248  3499
STARLINK-31690          
1 59581U 24076T   24129.25002315 -.00240555  00000+0 -16852-2 0  9999
2 59581  42.9998 235.4685 0001521 247.3707 140.5124 15.73961512  3508
STARLINK-31701          
1 59582U 24076U   24129.25002315 -.00065692  00000+0 -45074-3 0  9996
2 59582  43.0000 235.4583 0001592 264.1838 127.7585 15.73843773  3339
STARLINK-31697          
1 59583U 24076V   24129.25002315 -.00150292  00000+0 -10431-2 0  9996
2 59583  42.9999 235.4637 0001642 245.5849 144.3355 15.73903437  3330
STARLINK-31662          
1 59584U 24076W   24129.25002315 -.00066348  00000+0 -45529-3 0  9992
2 59584  42.9999 235.4535 0001766 269.1071 124.8385 15.73844131  3492
STARLINK-31702          
1 59585U 24076X   24129.25002315 -.00053215  00000+0 -36407-3 0  9997
2 59585  43.0000 235.4482 0001721 257.9605 137.9996 15.73837650  3499
STARLINK-31704          
1 59586U 24076Y   24129.25002315 -.00024670  00000+0 -16659-3 0  9998
2 59586  42.9999 235.4435 0001686 256.4376 141.5302 15.73821965  3508
NEONSAT-1               
1 59587U 24077A   24129.15808244  .00010064  00000+0  52272-3 0  9995
2 59587  97.4135 209.6017 0015055 224.1103 135.8931 15.16196784  2155
ACS3                    
1 59588U 24077B   24129.23040238  .00000076  00000+0  12422-3 0  9991
2 59588  97.4070 206.6889 0019884 200.0440 159.9932 13.67675125  1948
ELECTRON KICK STAGE R/B 
1 59590U 24077D   24129.21671881  .00009815  00000+0  10449-2 0  9992
2 59590  97.3959 208.2109 0387172 160.4222 201.2321 14.46873121  2054
SHENZHOU-18 (SZ-18)     
1 59591U 24078A   24128.72820444  .00039457  00000+0  41825-3 0  9998
2 59591  41.4681 330.2763 0003895 304.3350  55.7121 15.63337173172765
1998-067WP              
1 59596U 98067WP  24128.51068733  .00062520  00000+0  92818-3 0  9999
2 59596  51.6350 156.7395 0005167  69.1374 291.0170 15.54587990  3018
1998-067WQ              
1 59597U 98067WQ  24128.57476381  .00064535  00000+0  95604-3 0  9992
2 59597  51.6357 156.4185 0005216  69.5830 290.5720 15.54633154  2991
2024-079A               
1 59598U 24079A   24122.82359769  .00000076  00000+0  00000+0 0  9999
2 59598  54.6583 122.7856 0009775 266.2586  83.2239  1.72803132    63
FALCON 9 R/B            
1 59599U 24079B   24128.83229649  .00000047  00000+0  00000+0 0  9998
2 59599  54.6630 122.6112 0001406 278.5171 216.2671  1.73014188   211
2024-079C               
1 59600U 24079C   24124.56961717  .00000077  00000+0  00000+0 0  9999
2 59600  54.6619 122.7361 0005848 325.5920  34.3918  1.73026194   153
STARLINK-31770          
1 59601U 24080A   24128.91667824 -.00889188  00000+0 -50596-2 0  9995
2 59601  43.0041 271.0283 0001529 286.7074 227.7237 15.80321489  2664
STARLINK-31778          
1 59602U 24080B   24128.91667824 -.00896107  00000+0 -50972-2 0  9993
2 59602  43.0041 271.0233 0001417 280.3651 236.0333 15.80347881  2661
STARLINK-31776          
1 59603U 24080C   24128.91667824 -.00903434  00000+0 -51399-2 0  9990
2 59603  43.0040 271.0179 0001449 284.0595 234.5557 15.80362199  2618
STARLINK-31765          
1 59604U 24080D   24128.91667824 -.00913993  00000+0 -52014-2 0  9997
2 59604  43.0038 271.0125 0001710 281.6381 239.1381 15.80380960  2661
STARLINK-31767          
1 59605U 24080E   24128.91667824 -.00920303  00000+0 -52368-2 0  9993
2 59605  43.0040 271.0069 0001582 286.8483 236.0221 15.80400641  2667
STARLINK-31782          
1 59606U 24080F   24128.91667824 -.00931385  00000+0 -53035-2 0  9998
2 59606  43.0039 271.0012 0001596 282.7886 242.3423 15.80414412  2666
STARLINK-31755          
1 59607U 24080G   24128.91667824 -.00941415  00000+0 -53621-2 0  9995
2 59607  43.0038 270.9957 0001695 279.0741 248.1932 15.80433441  2663
STARLINK-31585          
1 59608U 24080H   24128.91667824 -.00946309  00000+0 -53894-2 0  9995
2 59608  43.0040 270.9903 0001534 286.7561 242.6405 15.80450119  2660
STARLINK-31667          
1 59609U 24080J   24128.91667824 -.00954668  00000+0 -54363-2 0  9995
2 59609  43.0039 270.9853 0001791 283.0085 248.4386 15.80471925  2669
STARLINK-31729          
1 59610U 24080K   24128.91667824 -.00960697  00000+0 -54688-2 0  9996
2 59610  43.0037 270.9801 0001740 284.8609 248.5871 15.80495352  2667
STARLINK-31448          
1 59611U 24080L   24128.91667824 -.00969992  00000+0 -55276-2 0  9998
2 59611  43.0039 270.9740 0001557 284.1829 251.6883 15.80498608  2660
STARLINK-31748          
1 59612U 24080M   24128.91667824 -.00980032  00000+0 -55875-2 0  9992
2 59612  43.0037 270.9680 0001651 280.4021 257.6645 15.80513507  2613
STARLINK-31746          
1 59613U 24080N   24128.91667824 -.00871533  00000+0 -37900-2 0  9997
2 59613  43.0034 270.7058 0001856 283.2895 358.8079 15.85903436  2664
STARLINK-31762          
1 59614U 24080P   24128.91667824 -.00986221  00000+0 -56204-2 0  9997
2 59614  43.0034 270.9632 0001603 288.6168 251.4067 15.80539318  2661
STARLINK-31761          
1 59615U 24080Q   24128.91667824 -.01003728  00000+0 -57235-2 0  9996
2 59615  43.0035 270.9523 0001734 284.1958 260.1362 15.80571295  2615
STARLINK-31768          
1 59616U 24080R   24128.91667824 -.01016178  00000+0 -58013-2 0  9995
2 59616  43.0036 270.9462 0001831 284.7372 261.9597 15.80577755  2664
STARLINK-31769          
1 59617U 24080S   24128.91667824 -.01024241  00000+0 -58518-2 0  9996
2 59617  43.0033 270.9405 0001754 283.2864 265.7243 15.80583480  2665
STARLINK-31784          
1 59618U 24080T   24129.16667824 -.01104925  00000+0 -64079-2 0  9992
2 59618  43.0041 269.4048 0001642 262.2891 272.9072 15.80039702  2634
STARLINK-31777          
1 59619U 24080U   24129.16667824 -.01112482  00000+0 -64536-2 0  9998
2 59619  43.0037 269.3990 0001625 264.1096 273.2265 15.80050377  2688
STARLINK-31771          
1 59620U 24080V   24129.16667824 -.01121992  00000+0 -65106-2 0  9990
2 59620  43.0036 269.3941 0001374 266.1554 273.2344 15.80067998  2637
STARLINK-31758          
1 59621U 24080W   24128.91667824 -.01075444  00000+0 -60448-2 0  9997
2 59621  43.0035 270.9192 0001583 284.7676 272.7462 15.80649040  2613
STARLINK-31774          
1 59622U 24080X   24129.16667824 -.01139602  00000+0 -66201-2 0  9996
2 59622  43.0038 269.3832 0001430 264.3780 279.4008 15.80082820  2685
STARLINK-31763          
1 59623U 24080Y   24129.16667824 -.01145249  00000+0 -66507-2 0  9990
2 59623  43.0039 269.3782 0001431 266.8547 278.9120 15.80102576  2680
SZ-17 MODULE            
1 59624U 23164C   24128.92532569  .00031967  00000+0  35532-3 0  9996
2 59624  41.4786 329.1455 0005856 325.7062  34.3399 15.62188795  1235
LEGION 1                
1 59625U 24081A   24128.77033858  .00006883  00000+0  36257-3 0  9990
2 59625  97.5778 199.8961 0004801 138.6146 221.5451 15.15917544   751
LEGION 2                
1 59626U 24081B   24128.90159604  .00007186  00000+0  37598-3 0  9990
2 59626  97.5778 200.0288 0003865 131.3864 228.7702 15.16145112   770
CZ-5 R/B                
1 59628U 24083B   24124.60000000  .00000000  00000+0  00000+0 0  9994
2 59628  23.1500 348.9340 9764692 239.8920   3.9470  0.06022200    38
ICECUBE-Q               
1 59629U 24083C   24124.68000000 -.00194999  15823-2  00000+0 0  9997
2 59629  23.0390 348.5400 9762994 239.7870   5.9940  0.06350648    05
2024-085A               
1 59677U 24085A   24128.67340242  .00029817  00000+0  13436-2 0  9993
2 59677  97.4051 203.5113 0012886 262.7748 251.2605 15.20922992    88
2024-085B               
1 59678U 24085B   24128.67330296  .00002194  00000+0  10000-3 0  9996
2 59678  97.4109 203.5146 0014100 275.1887 239.6573 15.21632067    77
2024-085C               
1 59679U 24085C   24128.67343133  .00010677  00000+0  48108-3 0  9996
2 59679  97.4044 203.5080 0013326 265.9710 248.6715 15.21151701    73
